{
  "norad_id": 62192,
  "name": "STARLINK-32686",
  "history": [
    {
      "epoch": "2026-03-28T15:41:24.072576Z",
      "apogee_km": 483.8580410616978,
      "perigee_km": 482.0453414294707,
      "latitude_deg": 4.970127817266251e-05,
      "longitude_deg": 98.57284853804538,
      "height_km": 482.9587067152849,
      "semi_major_axis_km": 6861.0886912455835,
      "eccentricity": 0.0001321,
      "inclination_deg": 43.0021,
      "raan_deg": 159.9942,
      "arg_perigee_deg": 255.285,
      "mean_anomaly_deg": 104.7856,
      "mean_motion_rev_day": 15.2761253
    },
    {
      "epoch": "2026-03-28T21:58:01.962336Z",
      "apogee_km": 483.91237182652367,
      "perigee_km": 482.09416965477703,
      "latitude_deg": 5.064311727726167e-06,
      "longitude_deg": 2.679831737657019,
      "height_km": 482.59708608085924,
      "semi_major_axis_km": 6861.14027074065,
      "eccentricity": 0.0001325,
      "inclination_deg": 43.0047,
      "raan_deg": 158.5169,
      "arg_perigee_deg": 281.6353,
      "mean_anomaly_deg": 78.435,
      "mean_motion_rev_day": 15.27595304
    },
    {
      "epoch": "2026-03-30T05:21:10.024416Z",
      "apogee_km": 483.820938285372,
      "perigee_km": 482.2667436012807,
      "latitude_deg": 5.1921172480800816e-06,
      "longitude_deg": -116.77731906646399,
      "height_km": 482.8463505885917,
      "semi_major_axis_km": 6861.180840943326,
      "eccentricity": 0.00011326,
      "inclination_deg": 43.0024,
      "raan_deg": 151.1323,
      "arg_perigee_deg": 268.0995,
      "mean_anomaly_deg": 91.9727,
      "mean_motion_rev_day": 15.27581755
    },
    {
      "epoch": "2026-03-30T21:02:43.670976Z",
      "apogee_km": 483.96093453589856,
      "perigee_km": 482.0306234398595,
      "latitude_deg": 2.737627730322027e-05,
      "longitude_deg": 3.49553589363652,
      "height_km": 482.92848371006244,
      "semi_major_axis_km": 6861.132778987879,
      "eccentricity": 0.00014067,
      "inclination_deg": 43.0034,
      "raan_deg": 147.4398,
      "arg_perigee_deg": 260.7188,
      "mean_anomaly_deg": 99.3505,
      "mean_motion_rev_day": 15.27597806
    },
    {
      "epoch": "2026-03-31T20:35:05.191008Z",
      "apogee_km": 483.4984647410838,
      "perigee_km": 482.6449303791078,
      "latitude_deg": 4.299519702561184e-05,
      "longitude_deg": 3.89866194338754,
      "height_km": 482.6449783249271,
      "semi_major_axis_km": 6861.208697560096,
      "eccentricity": 6.22e-05,
      "inclination_deg": 43.0001,
      "raan_deg": 141.8993,
      "arg_perigee_deg": 61.8133,
      "mean_anomaly_deg": 298.2782,
      "mean_motion_rev_day": 15.27572452
    },
    {
      "epoch": "2026-04-01T20:07:26.238432Z",
      "apogee_km": 483.3226963607576,
      "perigee_km": 482.7834068227021,
      "latitude_deg": 3.570432144474062e-05,
      "longitude_deg": 4.306438039423838,
      "height_km": 482.61750277670376,
      "semi_major_axis_km": 6861.19005159173,
      "eccentricity": 3.93e-05,
      "inclination_deg": 42.998,
      "raan_deg": 136.3615,
      "arg_perigee_deg": 321.4928,
      "mean_anomaly_deg": 38.5896,
      "mean_motion_rev_day": 15.27578679
    },
    {
      "epoch": "2026-04-02T13:23:08.570112Z",
      "apogee_km": 483.844863657986,
      "perigee_km": 482.0888327390776,
      "latitude_deg": 5.3761733124935084e-05,
      "longitude_deg": 100.60926063038679,
      "height_km": 482.78718121767565,
      "semi_major_axis_km": 6861.1038481985315,
      "eccentricity": 0.00012797,
      "inclination_deg": 43.0042,
      "raan_deg": 132.2996,
      "arg_perigee_deg": 267.1746,
      "mean_anomaly_deg": 92.896,
      "mean_motion_rev_day": 15.27607468
    },
    {
      "epoch": "2026-04-03T11:21:18.948672Z",
      "apogee_km": 484.3804870960039,
      "perigee_km": 481.4218702126054,
      "latitude_deg": -5.526373893216543e-06,
      "longitude_deg": 124.9939963442044,
      "height_km": 482.5895560553717,
      "semi_major_axis_km": 6861.038178654305,
      "eccentricity": 0.00021561,
      "inclination_deg": 43.0063,
      "raan_deg": 127.1299,
      "arg_perigee_deg": 273.4732,
      "mean_anomaly_deg": 86.5873,
      "mean_motion_rev_day": 15.276294
    },
    {
      "epoch": "2026-04-04T10:53:39.054336Z",
      "apogee_km": 484.55953596468225,
      "perigee_km": 481.5839669533498,
      "latitude_deg": 5.2388155789391775e-06,
      "longitude_deg": 125.40342472992987,
      "height_km": 482.31098314129207,
      "semi_major_axis_km": 6861.208751459016,
      "eccentricity": 0.00021684,
      "inclination_deg": 43.0041,
      "raan_deg": 121.5898,
      "arg_perigee_deg": 291.2195,
      "mean_anomaly_deg": 68.8425,
      "mean_motion_rev_day": 15.27572434
    }
  ]
}